{
  "norad_id": 25159,
  "name": "ORBCOMM FM04",
  "history": [
    {
      "epoch": "2026-05-03T17:34:10.877376Z",
      "apogee_km": 801.1923076976627,
      "perigee_km": 744.6104317012532,
      "latitude_deg": 2.8318893279192093e-05,
      "longitude_deg": -47.241569804968755,
      "height_km": 754.3712495615371,
      "semi_major_axis_km": 7151.038369699458,
      "eccentricity": 0.0039562,
      "inclination_deg": 107.9621,
      "raan_deg": 77.9353,
      "arg_perigee_deg": 42.2865,
      "mean_anomaly_deg": 318.1315,
      "mean_motion_rev_day": 14.35651733
    },
    {
      "epoch": "2026-05-04T18:39:13.859136Z",
      "apogee_km": 801.2181663962556,
      "perigee_km": 744.5691318002291,
      "latitude_deg": -6.896177187983715e-05,
      "longitude_deg": -62.38363593105587,
      "height_km": 753.7415529137118,
      "semi_major_axis_km": 7151.030649098242,
      "eccentricity": 0.0039609,
      "inclination_deg": 107.9621,
      "raan_deg": 80.0858,
      "arg_perigee_deg": 40.4442,
      "mean_anomaly_deg": 319.9631,
      "mean_motion_rev_day": 14.35654058
    },
    {
      "epoch": "2026-05-05T18:03:56.429280Z",
      "apogee_km": 801.241419652325,
      "perigee_km": 744.5266717389131,
      "latitude_deg": -3.1457355652236015e-05,
      "longitude_deg": -52.515316812392435,
      "height_km": 753.170721893276,
      "semi_major_axis_km": 7151.021045695618,
      "eccentricity": 0.0039655,
      "inclination_deg": 107.9621,
      "raan_deg": 82.093,
      "arg_perigee_deg": 38.7302,
      "mean_anomaly_deg": 321.667,
      "mean_motion_rev_day": 14.3565695
    }
  ]
}